KUIPER-00133            
1 65764U 25217C   25361.44928889 -.00001253  00000+0 -13481-3 0  9996
2 65764  51.9043  12.5454 0012014  79.7202 280.5115 14.79928859 14041
KUIPER-00139            
1 65765U 25217D   25361.32004138  .00010580  00000+0  82001-3 0  9991
2 65765  51.8875   5.2007 0008761  70.0377 290.1537 15.01864977 14139
KUIPER-00142            
1 65766U 25217E   25361.50002315 -.00662634  00000+0 -51756-1 0  9993
2 65766  51.8990 356.2269 0003261  93.1742 232.3836 15.03211925  4601
KUIPER-00145            
1 65767U 25217F   25361.50002315 -.00028683  00000+0 -25931-2 0  9991
2 65767  51.8958 358.1132 0008483  63.1450 288.6677 14.94822916  5537
KUIPER-00147            
1 65768U 25217G   25361.50002315 -.00998954  00000+0 -98057-1 0  9997
2 65768  51.9084   0.5477 0011750  72.2040 141.9717 14.94628465  5276
KUIPER-00148            
1 65769U 25217H   25361.37534352  .00017322  00000+0  11083-2 0  9998
2 65769  51.8793 359.6896 0010175  93.9154 266.2984 15.08630277 14213
KUIPER-00150            
1 65770U 25217J   25361.50002315  .00041250  00000+0  54100-2 0  9998
2 65770  51.9023   9.8208 0000463 114.7583 141.7322 14.79907681  5676
KUIPER-00151            
1 65771U 25217K   25361.50002315 -.00177425  00000+0 -22219-1 0  9990
2 65771  51.9265   2.3881 0000426 105.4005  71.1711 14.82907025  5129
